O/OREOS (USA 219)       
1 37224U 10062C   25104.95632467  .00004718  00000+0  48086-3 0  9999
2 37224  71.9719 328.3843 0015062 170.2200 189.9265 14.91081033 52750
ELEKTRO-L 1 (GOMS 2)    
1 37344U 11001A   25104.67478258 -.00000113  00000+0  00000+0 0  9997
2 37344   8.7104  58.7437 0004848  16.7044 356.0937  1.00253903 52196
RESOURCESAT-2           
1 37387U 11015A   25105.52111445  .00000526  00000+0  25549-3 0  9992
2 37387  98.8120 169.7185 0009364  20.5279 339.6273 14.22575362725938
YOUTHSAT                
1 37388U 11015B   25105.56189826  .00000500  00000+0  22913-3 0  9999
2 37388  98.3233  95.2286 0015068 153.4087 319.6895 14.25354111727249
APRIZESAT 6             
1 37793U 11044F   25105.18507649  .00002090  00000+0  30715-3 0  9991
2 37793  98.2661   1.6386 0044344  15.9651 109.1663 14.75943409734144
JUGNU                   
1 37839U 11058B   25104.99579421  .00000747  00000+0  25112-3 0  9994
2 37839  19.9620  29.4327 0018612  28.5601  58.7446 14.13573929698478
SRMSAT                  
1 37841U 11058D   25105.37524713  .00000627  00000+0  19684-3 0  9998
2 37841  19.9706 128.6087 0011750 176.6780 210.5252 14.11411431697525
SUOMI NPP               
1 37849U 11061A   25105.49252961  .00000235  00000+0  13237-3 0  9999
2 37849  98.7544  45.3801 0002473  99.9643 260.1812 14.19519057697753
YAOGAN-12               
1 37875U 11066B   25105.50063357  .00012054  00000+0  51092-3 0  9997
2 37875  97.1719 158.8204 0010437 323.8760  36.1771 15.23226458747458
ZIYUAN 3-1 (ZY 3-1)     
1 38046U 12001A   25105.52631929  .00027086  00000+0  47760-3 0  9994
2 38046  97.1999 170.0575 0005267 120.7655 239.4116 15.50365307737499
BEIDOU-2 M4             
1 38251U 12018B   25105.16748619 -.00000061  00000+0  00000+0 0  9992
2 38251  56.0202 318.5083 0011735 278.2137  81.6852  1.86232262 88324
ARIRANG-3 (KOMPSAT-3)   
1 38338U 12025B   25105.52130626  .00001359  00000+0  27815-3 0  9996
2 38338  98.3015  58.7729 0007406  15.4800 344.6627 14.62405566688953
HORYU-2                 
1 38340U 12025D   25104.26807170  .00008017  00000+0  89802-3 0  9996
2 38340  98.1716 217.2985 0009975 139.0883 221.1082 14.87100526684893
CSSWE                   
1 38761U 12048D   25105.17222788  .00032094  00000+0  11460-2 0  9991
2 38761  64.6640  77.2126 0116045 289.5425  69.3199 15.22493479 50794
CP5                     
1 38763U 12048F   25105.09255250  .00020631  00000+0  89926-3 0  9991
2 38763  64.6545 112.7914 0130291 293.6704  65.0789 15.14812069 51650
METOP-B                 
1 38771U 12049A   25105.49418752  .00000291  00000+0  15279-3 0  9993
2 38771  98.5826 161.2458 0001771 122.0569 238.0781 14.21478302652491
SJ-9A                   
1 38860U 12056A   25105.51973070  .00002612  00000+0  31658-3 0  9990
2 38860  97.6225  89.7773 0024989 222.1307 137.7987 14.84210951675339
COSMOS 2484             
1 39059U 13001C   25104.91642330  .00000052  00000+0  30361-3 0  9993
2 39059  82.4983 128.2166 0025103 246.0886 113.7564 12.42920023555358
SARAL                   
1 39086U 13009A   25104.94909910  .00000289  00000+0  12238-3 0  9999
2 39086  98.5541 292.0205 0003111 106.3833 253.7693 14.32682049634287
AAUSAT 3                
1 39087U 13009B   25105.50452820  .00001642  00000+0  54408-3 0  9995
2 39087  98.3682 294.3747 0012629  60.1824 300.0618 14.39112218635961
STRAND-1                
1 39090U 13009E   25105.52081358  .00000794  00000+0  28332-3 0  9999
2 39090  98.3828 291.6623 0009877  72.4609 287.7656 14.36761315635663
BRITE-AUSTRIA           
1 39091U 13009F   25104.74087825  .00000524  00000+0  19375-3 0  9996
2 39091  98.3884 290.1640 0011452  81.0442 279.2040 14.36270875635548
UNIBRITE                
1 39092U 13009G   25104.78450673  .00000520  00000+0  19286-3 0  9993
2 39092  98.3923 290.2088 0010357  77.6885 282.5460 14.36142587635490
AIST-2 (RS-43)          
1 39133U 13015D   25105.55386583  .00009647  00000+0  44902-3 0  9992
2 39133  64.8719 208.8391 0029385 288.1103  71.6824 15.20032989659217
GAOFEN-1                
1 39150U 13018A   25105.51473958  .00001681  00000+0  24792-3 0  9998
2 39150  97.9522 180.0761 0017528 200.3815 159.6697 14.76523058645176
NEE-01 PEGASO           
1 39151U 13018B   25105.13803813  .00006154  00000+0  63683-3 0  9996
2 39151  98.0643 232.7903 0014551 130.7802 229.4681 14.90375865646886
TURKSAT-3USAT           
1 39152U 13018C   25105.51664338  .00007161  00000+0  70137-3 0  9997
2 39152  97.8070 193.9651 0014356  86.4519 273.8341 14.92506955647224
CUBEBUG-1 (CAPITAN BETO)
1 39153U 13018D   25105.29520647  .00007709  00000+0  74267-3 0  9993
2 39153  98.1104 244.0018 0013679 120.9245 239.3320 14.93164401647208
PROBA-V                 
1 39159U 13021A   25105.55852606  .00000200  00000+0  10582-3 0  9994
2 39159  98.3205 101.4046 0003252 319.1967  40.8968 14.23468411620276
ESTCUBE 1               
1 39161U 13021C   25105.09396168  .00003650  00000+0  49529-3 0  9997
2 39161  97.7847 168.3498 0007607 339.5743  20.5163 14.79450399641725
ARIRANG-5 (KOMPSAT-5)   
1 39227U 13042A   25105.51714158  .00002469  00000+0  18069-3 0  9995
2 39227  97.6212 293.1926 0003880 136.3229 223.8305 15.04494849639615
GONETS-M 5              
1 39249U 13048A   25104.86716162  .00000028  00000+0  13329-3 0  9992
2 39249  82.4793 250.3626 0016905  69.6173 290.6721 12.42862492525671
GONETS-M 7              
1 39251U 13048C   25104.92031025  .00000028  00000+0  13260-3 0  9994
2 39251  82.4856 253.0297 0017726  70.3987 289.9005 12.42894800525632
FENGYUN 3C              
1 39260U 13052A   25105.51729195  .00000257  00000+0  15219-3 0  9997
2 39260  98.4528  95.3209 0014827 170.3321 189.8142 14.15605398598125
CASSIOPE                
1 39265U 13055A   25105.19741504  .00040449 -54466-6  65303-3 0  9996
2 39265  80.9460 213.4581 0402907  32.2849 330.2348 14.94995759603091
APRIZESAT 7             
1 39416U 13066A   25105.52292163  .00002542  00000+0  26680-3 0  9999
2 39416  97.7162  62.0020 0036716 185.8897 174.1895 14.89895573617543
ZACUBE-1 (TSHEPISOSAT)  
1 39417U 13066B   25104.61546487  .00009224  00000+0  81246-3 0  9993
2 39417  97.7754  61.9693 0042983 237.6346 122.0711 14.95975528616547
APRIZESAT 8             
1 39425U 13066K   25104.89749130  .00002445  00000+0  27898-3 0  9993
2 39425  97.7718  55.2467 0045562 254.3479 105.2707 14.86281258616290
CINEMA-3 (KHUSAT-2)     
1 39426U 13066L   25105.17526264  .00003133  00000+0  42635-3 0  9998
2 39426  97.8471  23.9570 0093490 156.7011 203.8479 14.76446086611528
TRITON-1                
1 39427U 13066M   25105.46320136  .00004509  00000+0  57754-3 0  9997
2 39427  97.8388  20.6465 0094905 184.3111 175.7293 14.78647455611002
DELFI-N3XT              
1 39428U 13066N   25105.48453970  .00008854  00000+0  92001-3 0  9994
2 39428  97.8365  23.7911 0086053 180.6704 179.4411 14.87399829611068
GOMX-1                  
1 39430U 13066Q   25105.53041825  .00003742  00000+0  58713-3 0  9998
2 39430  97.6902 327.5601 0133368   9.2996 351.0633 14.67370870607330
BRITE-PL1 (LEM)         
1 39431U 13066R   25104.93662229  .00001617  00000+0  33662-3 0  9994
2 39431  97.7443 244.3878 0191922 263.2433  94.6891 14.50419568601837
ICUBE-1                 
1 39432U 13066S   25104.87799574  .00019955  00000+0  11175-2 0  9990
2 39432  97.5338  85.6201 0022817  28.3277 331.9190 15.13234392619385
HUMSAT-D                
1 39433U 13066T   25105.03509136  .00046806  00000+0  15447-2 0  9994
2 39433  97.5016 100.0560 0009192 329.3817  30.6886 15.31227512621748
VELOX-PII               
1 39438U 13066Y   25104.82285146  .00007345  00000+0  75543-3 0  9996
2 39438  97.8259  53.3505 0055656 321.3475  38.3764 14.89461249613999
FIRST-MOVE              
1 39439U 13066Z   25104.92166464  .00044807  00000+0  18204-2 0  9993
2 39439  97.7437  77.2164 0028156 174.5858 185.5688 15.24056024617514
CUBEBUG-2 (LO-74)       
1 39440U 13066AA  25104.59158892  .00010607  00000+0  10827-2 0  9998
2 39440  97.8464  49.5748 0063150   6.8050 353.4010 14.89315439613105
NEE-02 KRYSAOR          
1 39441U 13066AB  25105.37108194  .00006392  00000+0  74127-3 0  9996
2 39441  97.8527  44.5725 0070520  32.0005 328.5462 14.83977865613853
FUNCUBE-1 (AO-73)       
1 39444U 13066AE  25104.84835771  .00012965  00000+0  99467-3 0  9995
2 39444  97.7704  66.6155 0040263 213.2725 146.5967 15.01280195615222
HINCUBE                 
1 39445U 13066AF  25105.52969739  .00009599  00000+0  75018-3 0  9999
2 39445  97.7585  66.7429 0041991 214.1726 145.6793 15.00603343615416
UWE-3                   
1 39446U 13066AG  25104.76259321  .00008911  00000+0  85474-3 0  9998
2 39446  97.8203  56.0347 0052187 305.7833  53.8541 14.92313186613581
SMDC ONE 2.4            
1 39469U 13072H   25105.11049611  .00011273  00000+0  59047-3 0  9991
2 39469 120.4915 156.0208 0167651 273.8395  84.3519 15.05135316 53110
CP8 (IPEX)              
1 39471U 13072K   25104.97068346  .00009236  00000+0  55866-3 0  9994
2 39471 120.4679 123.2556 0181061 265.4101  92.6261 14.98888544 50847
COSMOS 2488             
1 39483U 13076A   25104.95158185  .00000016  00000+0  44123-4 0  9992
2 39483  82.4815  75.5640 0018359 312.3756  47.5769 12.42860898512696
COSMOS 2489             
1 39484U 13076B   25104.92403247  .00000020  00000+0  76619-4 0  9992
2 39484  82.4850  76.8284 0020129 312.5122  47.4256 12.42861359512740
COSMOS 2490             
1 39485U 13076C   25105.45872300  .00000025  00000+0  11070-3 0  9996
2 39485  82.4800  74.7475 0020639 327.7825  32.1993 12.42859984512952
AIST-1 (RS-41)          
1 39492U 13078C   25105.52150853  .00002880  00000+0  26571-3 0  9999
2 39492  82.4156 324.5862 0015881 269.8528  90.0873 14.94244154613676
KAZEOSAT 1              
1 39731U 14024A   25105.46377572  .00000427  00000+0  14325-3 0  9998
2 39731  98.3611 182.4669 0001227  92.2696 267.8634 14.42013239576963
